[{"OBJECT_NAME":"STARLINK-3045","OBJECT_ID":"2021-082AV","EPOCH":"2026-03-09T21:20:07.505664","MEAN_MOTION":14.98326751,"ECCENTRICITY":0.00019841,"INCLINATION":69.9985,"RA_OF_ASC_NODE":273.9429,"ARG_OF_PERICENTER":269.7131,"MEAN_ANOMALY":90.3801,"EPHEMERIS_TYPE":0,"CLASSIFICATION_TYPE":"U","NORAD_CAT_ID":49173,"ELEMENT_SET_NO":999,"REV_AT_EPOCH":24650,"BSTAR":-2.5676417e-5,"MEAN_MOTION_DOT":-3.99e-6,"MEAN_MOTION_DDOT":0},{"OBJECT_NAME":"CZ-6A DEB","OBJECT_ID":"2024-140AV","EPOCH":"2026-03-09T16:02:49.073856","MEAN_MOTION":14.88911619,"ECCENTRICITY":0.00760382,"INCLINATION":89.0057,"RA_OF_ASC_NODE":281.1228,"ARG_OF_PERICENTER":170.8875,"MEAN_ANOMALY":189.3755,"EPHEMERIS_TYPE":0,"CLASSIFICATION_TYPE":"U","NORAD_CAT_ID":60644,"ELEMENT_SET_NO":999,"REV_AT_EPOCH":8516,"BSTAR":0.002692912,"MEAN_MOTION_DOT":0.00026759,"MEAN_MOTION_DDOT":0}]
